{"type": "Feature", "properties": {}, "geometry": {"type": "Polygon", "coordinates": [[[-75.82367, 45.28086], [-75.82356, 45.28112], [-75.8232, 45.28104], [-75.82309, 45.2813], [-75.82237, 45.28114], [-75.82226, 45.2814], [-75.8219, 45.28132], [-75.82178, 45.28158], [-75.82142, 45.2815], [-75.82131, 45.28176], [-75.81951, 45.28136], [-75.8194, 45.28162], [-75.81868, 45.28145], [-75.81879, 45.28119], [-75.81734, 45.28087], [-75.81746, 45.28061], [-75.8171, 45.28053], [-75.81687, 45.28105], [-75.81651, 45.28097], [-75.8164, 45.28123], [-75.81604, 45.28115], [-75.81582, 45.28167], [-75.81546, 45.28159], [-75.81523, 45.28211], [-75.81487, 45.28203], [-75.81476, 45.28229], [-75.81404, 45.28213], [-75.81393, 45.28239], [-75.81357, 45.28231], [-75.81345, 45.28257], [-75.81309, 45.28249], [-75.81265, 45.28354], [-75.81301, 45.28362], [-75.81278, 45.28414], [-75.8117, 45.2839], [-75.81159, 45.28416], [-75.81123, 45.28408], [-75.81134, 45.28382], [-75.80954, 45.28341], [-75.80943, 45.28367], [-75.80907, 45.28359], [-75.80895, 45.28385], [-75.80823, 45.28369], [-75.80812, 45.28395], [-75.8074, 45.28379], [-75.80673, 45.28536], [-75.80709, 45.28544], [-75.80698, 45.2857], [-75.80734, 45.28578], [-75.80711, 45.2863], [-75.80675, 45.28622], [-75.80642, 45.287], [-75.80534, 45.28676], [-75.80522, 45.28702], [-75.80486, 45.28694], [-75.80475, 45.2872], [-75.80439, 45.28712], [-75.80417, 45.28764], [-75.80381, 45.28756], [-75.80336, 45.28861], [-75.803, 45.28853], [-75.80311, 45.28826], [-75.80167, 45.28794], [-75.80178, 45.28768], [-75.79998, 45.28728], [-75.80009, 45.28701], [-75.79973, 45.28693], [-75.79984, 45.28667], [-75.79948, 45.28659], [-75.79959, 45.28633], [-75.79851, 45.28609], [-75.79873, 45.28556], [-75.79765, 45.28532], [-75.79776, 45.28506], [-75.79416, 45.28425], [-75.79393, 45.28477], [-75.79357, 45.28469], [-75.79346, 45.28495], [-75.7931, 45.28487], [-75.79299, 45.28513], [-75.79263, 45.28505], [-75.79251, 45.28531], [-75.79215, 45.28523], [-75.79204, 45.28549], [-75.79168, 45.28541], [-75.79157, 45.28567], [-75.78977, 45.28527], [-75.78965, 45.28553], [-75.78929, 45.28545], [-75.78918, 45.28571], [-75.78882, 45.28563], [-75.78871, 45.28589], [-75.78799, 45.28573], [-75.78788, 45.28599], [-75.78716, 45.28583], [-75.78704, 45.28609], [-75.78632, 45.28593], [-75.78621, 45.28619], [-75.78585, 45.28611], [-75.78596, 45.28584], [-75.7856, 45.28576], [-75.78571, 45.2855], [-75.78535, 45.28542], [-75.78546, 45.28516], [-75.7851, 45.28508], [-75.78522, 45.28482], [-75.78449, 45.28466], [-75.78461, 45.2844], [-75.78388, 45.28423], [-75.784, 45.28397], [-75.78364, 45.28389], [-75.78375, 45.28363], [-75.78267, 45.28339], [-75.78278, 45.28313], [-75.78242, 45.28304], [-75.78264, 45.28252], [-75.7812, 45.2822], [-75.78109, 45.28246], [-75.78037, 45.2823], [-75.78025, 45.28256], [-75.77917, 45.28232], [-75.77906, 45.28258], [-75.77762, 45.28225], [-75.77773, 45.28199], [-75.77737, 45.28191], [-75.77726, 45.28217], [-75.77654, 45.28201], [-75.77642, 45.28227], [-75.77678, 45.28235], [-75.77667, 45.28261], [-75.77703, 45.28269], [-75.77692, 45.28295], [-75.77728, 45.28304], [-75.77717, 45.2833], [-75.77753, 45.28338], [-75.77742, 45.28364], [-75.77778, 45.28372], [-75.77767, 45.28398], [-75.77803, 45.28406], [-75.77792, 45.28432], [-75.77936, 45.28465], [-75.77925, 45.28491], [-75.77961, 45.28499], [-75.77938, 45.28551], [-75.7801, 45.28567], [-75.77999, 45.28593], [-75.78035, 45.28602], [-75.78013, 45.28654], [-75.78049, 45.28662], [-75.78038, 45.28688], [-75.7811, 45.28704], [-75.78099, 45.2873], [-75.78171, 45.28747], [-75.78104, 45.28903], [-75.77995, 45.28879], [-75.77984, 45.28905], [-75.77948, 45.28897], [-75.77926, 45.28949], [-75.7789, 45.28941], [-75.77834, 45.29072], [-75.77798, 45.29063], [-75.77753, 45.29168], [-75.77717, 45.2916], [-75.77694, 45.29212], [-75.77731, 45.2922], [-75.77719, 45.29246], [-75.77683, 45.29238], [-75.77661, 45.2929], [-75.77625, 45.29282], [-75.7758, 45.29387], [-75.77544, 45.29378], [-75.77522, 45.29431], [-75.77485, 45.29423], [-75.77452, 45.29501], [-75.77416, 45.29493], [-75.77405, 45.29519], [-75.77369, 45.29511], [-75.77357, 45.29537], [-75.77285, 45.29521], [-75.77274, 45.29547], [-75.77202, 45.29531], [-75.77191, 45.29557], [-75.77155, 45.29549], [-75.77143, 45.29575], [-75.77071, 45.29558], [-75.7706, 45.29585], [-75.77024, 45.29576], [-75.77013, 45.29603], [-75.76941, 45.29586], [-75.76929, 45.29612], [-75.76857, 45.29596], [-75.76846, 45.29622], [-75.76774, 45.29606], [-75.76763, 45.29632], [-75.76727, 45.29624], [-75.76716, 45.2965], [-75.76679, 45.29642], [-75.76668, 45.29668], [-75.76632, 45.2966], [-75.76621, 45.29686], [-75.76585, 45.29678], [-75.76574, 45.29704], [-75.76502, 45.29688], [-75.7649, 45.29714], [-75.76454, 45.29706], [-75.76443, 45.29732], [-75.76407, 45.29724], [-75.76385, 45.29776], [-75.76349, 45.29768], [-75.76304, 45.29872], [-75.7634, 45.29881], [-75.76329, 45.29907], [-75.76365, 45.29915], [-75.76353, 45.29941], [-75.7639, 45.29949], [-75.76367, 45.30001], [-75.76439, 45.30017], [-75.76428, 45.30044], [-75.76464, 45.30052], [-75.76453, 45.30078], [-75.76489, 45.30086], [-75.76478, 45.30112], [-75.76514, 45.3012], [-75.7648, 45.30198], [-75.76516, 45.30207], [-75.76505, 45.30233], [-75.76613, 45.30257], [-75.7658, 45.30335], [-75.76616, 45.30343], [-75.76605, 45.30369], [-75.76641, 45.30378], [-75.76629, 45.30404], [-75.76665, 45.30412], [-75.76654, 45.30438], [-75.7669, 45.30446], [-75.76679, 45.30472], [-75.76715, 45.3048], [-75.76704, 45.30506], [-75.7674, 45.30514], [-75.76729, 45.30541], [-75.76765, 45.30549], [-75.76743, 45.30601], [-75.76779, 45.30609], [-75.76767, 45.30635], [-75.76803, 45.30643], [-75.76792, 45.30669], [-75.76828, 45.30677], [-75.76817, 45.30704], [-75.76853, 45.30712], [-75.76831, 45.30764], [-75.76867, 45.30772], [-75.76856, 45.30798], [-75.76892, 45.30806], [-75.76881, 45.30832], [-75.76917, 45.3084], [-75.76905, 45.30866], [-75.76942, 45.30875], [-75.7693, 45.30901], [-75.77002, 45.30917], [-75.77014, 45.30891], [-75.7705, 45.30899], [-75.77061, 45.30873], [-75.77097, 45.30881], [-75.77108, 45.30855], [-75.77144, 45.30863], [-75.77133, 45.30889], [-75.77241, 45.30913], [-75.7723, 45.30939], [-75.77302, 45.30956], [-75.77291, 45.30982], [-75.77363, 45.30998], [-75.77352, 45.31024], [-75.77316, 45.31016], [-75.77305, 45.31042], [-75.77269, 45.31034], [-75.77246, 45.31086], [-75.7721, 45.31078], [-75.77199, 45.31104], [-75.77127, 45.31088], [-75.77116, 45.31114], [-75.7708, 45.31106], [-75.77057, 45.31158], [-75.77093, 45.31166], [-75.77082, 45.31192], [-75.77118, 45.31201], [-75.77107, 45.31227], [-75.77143, 45.31235], [-75.77132, 45.31261], [-75.77168, 45.31269], [-75.77157, 45.31295], [-75.77193, 45.31303], [-75.7717, 45.31355], [-75.77206, 45.31363], [-75.77195, 45.3139], [-75.77231, 45.31398], [-75.7722, 45.31424], [-75.77256, 45.31432], [-75.77234, 45.31484], [-75.77306, 45.315], [-75.77272, 45.31579], [-75.77308, 45.31587], [-75.77275, 45.31665], [-75.77347, 45.31681], [-75.77336, 45.31707], [-75.77155, 45.31667], [-75.7711, 45.31771], [-75.77074, 45.31763], [-75.77052, 45.31815], [-75.77016, 45.31807], [-75.77005, 45.31833], [-75.76969, 45.31825], [-75.76957, 45.31851], [-75.76921, 45.31843], [-75.7691, 45.31869], [-75.76874, 45.31861], [-75.76863, 45.31887], [-75.76791, 45.31871], [-75.76779, 45.31897], [-75.76743, 45.31889], [-75.76732, 45.31915], [-75.76696, 45.31907], [-75.76685, 45.31933], [-75.76649, 45.31925], [-75.76638, 45.31951], [-75.76601, 45.31943], [-75.7659, 45.31969], [-75.76626, 45.31977], [-75.76604, 45.32029], [-75.76568, 45.32021], [-75.76557, 45.32047], [-75.76593, 45.32056], [-75.76581, 45.32082], [-75.76618, 45.3209], [-75.76595, 45.32142], [-75.76559, 45.32134], [-75.76537, 45.32186], [-75.76573, 45.32194], [-75.76562, 45.3222], [-75.76598, 45.32228], [-75.76586, 45.32255], [-75.76622, 45.32263], [-75.76611, 45.32289], [-75.76683, 45.32305], [-75.76672, 45.32331], [-75.76708, 45.32339], [-75.76675, 45.32417], [-75.76711, 45.32426], [-75.76677, 45.32504], [-75.76713, 45.32512], [-75.76691, 45.32564], [-75.76727, 45.32572], [-75.76716, 45.32598], [-75.76752, 45.32607], [-75.76741, 45.32633], [-75.76777, 45.32641], [-75.76765, 45.32667], [-75.76802, 45.32675], [-75.76779, 45.32727], [-75.76923, 45.3276], [-75.76901, 45.32812], [-75.76937, 45.3282], [-75.76915, 45.32872], [-75.77023, 45.32896], [-75.77034, 45.3287], [-75.77215, 45.32911], [-75.77203, 45.32937], [-75.77276, 45.32953], [-75.77264, 45.32979], [-75.77301, 45.32987], [-75.77289, 45.33014], [-75.77325, 45.33022], [-75.77314, 45.33048], [-75.7735, 45.33056], [-75.77328, 45.33108], [-75.77364, 45.33116], [-75.77353, 45.33142], [-75.77317, 45.33134], [-75.77283, 45.33212], [-75.77319, 45.33221], [-75.77308, 45.33247], [-75.7738, 45.33263], [-75.77391, 45.33237], [-75.77427, 45.33245], [-75.77416, 45.33271], [-75.77452, 45.33279], [-75.77464, 45.33253], [-75.77644, 45.33293], [-75.77633, 45.3332], [-75.77705, 45.33336], [-75.77694, 45.33362], [-75.7773, 45.3337], [-75.77719, 45.33396], [-75.77683, 45.33388], [-75.77649, 45.33466], [-75.77613, 45.33458], [-75.77557, 45.33589], [-75.77521, 45.33581], [-75.77476, 45.33685], [-75.7744, 45.33677], [-75.77384, 45.33807], [-75.7742, 45.33816], [-75.77364, 45.33946], [-75.774, 45.33954], [-75.77377, 45.34006], [-75.77341, 45.33998], [-75.77308, 45.34077], [-75.77344, 45.34085], [-75.77321, 45.34137], [-75.77466, 45.34169], [-75.77455, 45.34195], [-75.77491, 45.34204], [-75.77479, 45.3423], [-75.77624, 45.34262], [-75.77613, 45.34288], [-75.77649, 45.34296], [-75.77638, 45.34322], [-75.7771, 45.34339], [-75.77699, 45.34365], [-75.77662, 45.34357], [-75.77629, 45.34435], [-75.77557, 45.34419], [-75.77534, 45.34471], [-75.7757, 45.34479], [-75.77559, 45.34505], [-75.77595, 45.34513], [-75.77584, 45.34539], [-75.7762, 45.34547], [-75.77609, 45.34573], [-75.77573, 45.34565], [-75.77562, 45.34591], [-75.77634, 45.34608], [-75.77623, 45.34634], [-75.77659, 45.34642], [-75.77636, 45.34694], [-75.77708, 45.3471], [-75.77697, 45.34736], [-75.77769, 45.34753], [-75.77781, 45.34727], [-75.77817, 45.34735], [-75.77806, 45.34761], [-75.78022, 45.34809], [-75.78011, 45.34835], [-75.78192, 45.34876], [-75.78169, 45.34928], [-75.78205, 45.34936], [-75.78194, 45.34962], [-75.78302, 45.34987], [-75.78314, 45.34961], [-75.78422, 45.34985], [-75.78433, 45.34959], [-75.78469, 45.34967], [-75.78458, 45.34993], [-75.78494, 45.35001], [-75.78472, 45.35053], [-75.79194, 45.35215], [-75.79183, 45.35241], [-75.79255, 45.35258], [-75.79233, 45.3531], [-75.79305, 45.35326], [-75.79294, 45.35352], [-75.79366, 45.35368], [-75.79355, 45.35394], [-75.79391, 45.35402], [-75.7938, 45.35429], [-75.79416, 45.35437], [-75.79382, 45.35515], [-75.79526, 45.35547], [-75.79571, 45.35443], [-75.79607, 45.35451], [-75.7963, 45.35399], [-75.79666, 45.35407], [-75.79677, 45.35381], [-75.79713, 45.35389], [-75.79736, 45.35337], [-75.79772, 45.35345], [-75.79783, 45.35319], [-75.79819, 45.35327], [-75.79875, 45.35196], [-75.79911, 45.35204], [-75.79922, 45.35178], [-75.79886, 45.3517], [-75.79897, 45.35144], [-75.79861, 45.35136], [-75.79906, 45.35032], [-75.7987, 45.35023], [-75.79881, 45.34997], [-75.79917, 45.35005], [-75.79929, 45.34979], [-75.79965, 45.34987], [-75.79976, 45.34961], [-75.80012, 45.34969], [-75.80023, 45.34943], [-75.80059, 45.34951], [-75.8007, 45.34925], [-75.80251, 45.34966], [-75.80262, 45.3494], [-75.80298, 45.34948], [-75.80321, 45.34896], [-75.80357, 45.34904], [-75.80368, 45.34878], [-75.8044, 45.34894], [-75.80485, 45.34789], [-75.80449, 45.34781], [-75.80471, 45.34729], [-75.80435, 45.34721], [-75.80458, 45.34669], [-75.80422, 45.34661], [-75.80433, 45.34635], [-75.80397, 45.34626], [-75.8043, 45.34548], [-75.80394, 45.3454], [-75.80405, 45.34514], [-75.80369, 45.34506], [-75.8038, 45.3448], [-75.80416, 45.34488], [-75.80428, 45.34462], [-75.805, 45.34478], [-75.80511, 45.34452], [-75.80547, 45.3446], [-75.80558, 45.34434], [-75.80594, 45.34442], [-75.80617, 45.3439], [-75.80689, 45.34406], [-75.807, 45.3438], [-75.80773, 45.34396], [-75.80784, 45.3437], [-75.80856, 45.34386], [-75.80923, 45.34229], [-75.80959, 45.34237], [-75.8097, 45.34211], [-75.80934, 45.34203], [-75.80945, 45.34177], [-75.80873, 45.34161], [-75.80907, 45.34083], [-75.80979, 45.34099], [-75.81001, 45.34047], [-75.80929, 45.3403], [-75.8094, 45.34004], [-75.80904, 45.33996], [-75.80915, 45.3397], [-75.80879, 45.33962], [-75.80902, 45.3391], [-75.80866, 45.33902], [-75.80877, 45.33876], [-75.80949, 45.33892], [-75.8096, 45.33866], [-75.80996, 45.33874], [-75.8103, 45.33795], [-75.80994, 45.33787], [-75.81005, 45.33761], [-75.80969, 45.33753], [-75.8098, 45.33727], [-75.80944, 45.33719], [-75.80966, 45.33667], [-75.80822, 45.33634], [-75.80833, 45.33608], [-75.80797, 45.336], [-75.80808, 45.33574], [-75.80772, 45.33566], [-75.80795, 45.33514], [-75.80758, 45.33506], [-75.8077, 45.3348], [-75.80733, 45.33472], [-75.80745, 45.33445], [-75.80709, 45.33437], [-75.8072, 45.33411], [-75.80684, 45.33403], [-75.80695, 45.33377], [-75.80659, 45.33369], [-75.8067, 45.33343], [-75.80634, 45.33335], [-75.80656, 45.33282], [-75.80548, 45.33258], [-75.80559, 45.33232], [-75.80487, 45.33216], [-75.80498, 45.3319], [-75.80426, 45.33174], [-75.80437, 45.33148], [-75.80401, 45.33139], [-75.80435, 45.33061], [-75.80326, 45.33037], [-75.80337, 45.33011], [-75.80301, 45.33003], [-75.80346, 45.32898], [-75.80274, 45.32882], [-75.80296, 45.3283], [-75.80332, 45.32838], [-75.80355, 45.32786], [-75.80391, 45.32794], [-75.80402, 45.32768], [-75.80438, 45.32776], [-75.80449, 45.3275], [-75.80485, 45.32758], [-75.80497, 45.32732], [-75.80533, 45.3274], [-75.80544, 45.32714], [-75.80616, 45.3273], [-75.80627, 45.32704], [-75.80663, 45.32712], [-75.80686, 45.3266], [-75.80722, 45.32668], [-75.80733, 45.32642], [-75.80769, 45.3265], [-75.8078, 45.32624], [-75.80816, 45.32632], [-75.80828, 45.32606], [-75.80864, 45.32614], [-75.80875, 45.32588], [-75.80911, 45.32596], [-75.81012, 45.32361], [-75.81048, 45.32369], [-75.81059, 45.32343], [-75.81095, 45.32351], [-75.81118, 45.32299], [-75.81154, 45.32307], [-75.81165, 45.3228], [-75.81093, 45.32264], [-75.81104, 45.32238], [-75.80996, 45.32214], [-75.81007, 45.32188], [-75.80971, 45.3218], [-75.80982, 45.32154], [-75.80837, 45.32121], [-75.80826, 45.32147], [-75.80718, 45.32123], [-75.80707, 45.32149], [-75.80671, 45.32141], [-75.80659, 45.32167], [-75.80551, 45.32143], [-75.80529, 45.32195], [-75.80493, 45.32187], [-75.80526, 45.32109], [-75.80562, 45.32117], [-75.80574, 45.32091], [-75.8061, 45.32099], [-75.80643, 45.3202], [-75.80571, 45.32004], [-75.80582, 45.31978], [-75.80546, 45.3197], [-75.80602, 45.3184], [-75.8071, 45.31864], [-75.80722, 45.31838], [-75.8083, 45.31862], [-75.80875, 45.31758], [-75.80838, 45.31749], [-75.80861, 45.31697], [-75.80825, 45.31689], [-75.80847, 45.31637], [-75.80811, 45.31629], [-75.80822, 45.31603], [-75.8075, 45.31587], [-75.80772, 45.31534], [-75.80736, 45.31526], [-75.80748, 45.315], [-75.80711, 45.31492], [-75.80801, 45.31283], [-75.80837, 45.31291], [-75.80893, 45.31161], [-75.80929, 45.31169], [-75.8094, 45.31143], [-75.80904, 45.31135], [-75.80938, 45.31056], [-75.8101, 45.31072], [-75.81066, 45.30942], [-75.81102, 45.3095], [-75.81113, 45.30924], [-75.81149, 45.30932], [-75.81171, 45.3088], [-75.81208, 45.30888], [-75.81219, 45.30862], [-75.81255, 45.3087], [-75.813, 45.30765], [-75.81336, 45.30773], [-75.81358, 45.30721], [-75.8143, 45.30737], [-75.81441, 45.30711], [-75.81514, 45.30728], [-75.81536, 45.30675], [-75.81572, 45.30683], [-75.81594, 45.30631], [-75.81558, 45.30623], [-75.81581, 45.30571], [-75.81653, 45.30587], [-75.81642, 45.30613], [-75.81678, 45.30621], [-75.81689, 45.30595], [-75.81761, 45.30611], [-75.81772, 45.30585], [-75.81664, 45.30561], [-75.81675, 45.30535], [-75.81603, 45.30519], [-75.81614, 45.30493], [-75.81434, 45.30452], [-75.81445, 45.30426], [-75.81373, 45.3041], [-75.81406, 45.30331], [-75.8137, 45.30323], [-75.81381, 45.30297], [-75.81345, 45.30289], [-75.81368, 45.30237], [-75.81332, 45.30229], [-75.81365, 45.30151], [-75.81329, 45.30142], [-75.8134, 45.30116], [-75.81196, 45.30084], [-75.81241, 45.2998], [-75.81205, 45.29971], [-75.81216, 45.29945], [-75.8118, 45.29937], [-75.81191, 45.29911], [-75.81119, 45.29895], [-75.8113, 45.29869], [-75.81022, 45.29845], [-75.81066, 45.2974], [-75.81102, 45.29748], [-75.81114, 45.29722], [-75.8115, 45.2973], [-75.81161, 45.29704], [-75.81197, 45.29712], [-75.81208, 45.29686], [-75.81316, 45.2971], [-75.8135, 45.29632], [-75.81386, 45.2964], [-75.8142, 45.29562], [-75.81383, 45.29554], [-75.81451, 45.29397], [-75.81414, 45.29389], [-75.81437, 45.29337], [-75.81473, 45.29345], [-75.81484, 45.29319], [-75.81664, 45.29359], [-75.81676, 45.29333], [-75.81712, 45.29341], [-75.81723, 45.29315], [-75.81939, 45.29364], [-75.8195, 45.29337], [-75.82023, 45.29354], [-75.82034, 45.29327], [-75.81998, 45.29319], [-75.82009, 45.29293], [-75.81973, 45.29285], [-75.81984, 45.29259], [-75.81948, 45.29251], [-75.81981, 45.29173], [-75.81945, 45.29165], [-75.81968, 45.29112], [-75.81932, 45.29104], [-75.81943, 45.29078], [-75.81907, 45.2907], [-75.81918, 45.29044], [-75.81882, 45.29036], [-75.81893, 45.2901], [-75.81857, 45.29002], [-75.81879, 45.28949], [-75.81843, 45.28941], [-75.81877, 45.28863], [-75.81913, 45.28871], [-75.81946, 45.28793], [-75.8191, 45.28785], [-75.81944, 45.28706], [-75.81655, 45.28642], [-75.81666, 45.28615], [-75.8163, 45.28607], [-75.81642, 45.28581], [-75.81569, 45.28565], [-75.81603, 45.28487], [-75.81639, 45.28495], [-75.81661, 45.28443], [-75.81697, 45.28451], [-75.81709, 45.28425], [-75.81745, 45.28433], [-75.81767, 45.2838], [-75.81803, 45.28389], [-75.81814, 45.28362], [-75.8185, 45.28371], [-75.81861, 45.28344], [-75.8197, 45.28369], [-75.81981, 45.28343], [-75.82053, 45.28359], [-75.82064, 45.28333], [-75.821, 45.28341], [-75.82089, 45.28367], [-75.82161, 45.28383], [-75.82172, 45.28357], [-75.82208, 45.28365], [-75.8222, 45.28339], [-75.82256, 45.28347], [-75.82312, 45.28216], [-75.82348, 45.28224], [-75.8237, 45.28172], [-75.82406, 45.2818], [-75.82417, 45.28154], [-75.82381, 45.28146], [-75.82403, 45.28094], [-75.82367, 45.28086]]]}}